NORAD_CAT_ID,OBJECT_NAME,OBJECT_TYPE,EPOCH,MEAN_MOTION,ECCENTRICITY,INCLINATION,RA_OF_ASC_NODE,ARG_OF_PERICENTER,MEAN_ANOMALY,BSTAR,MEAN_MOTION_DOT,MEAN_MOTION_DDOT,TLE_LINE0,TLE_LINE1,TLE_LINE2,SEMIMAJOR_AXIS,PERIOD,APOGEE,PERIGEE,DECAYED
52681.0,STARLINK-4068,PAYLOAD,2023-03-16 03:51:27,15.08847385,0.0001762,53.2162,355.2115,65.9145,294.2031,0.0015869,0.00025063,0.0,0 STARLINK-4068,1 52681U 22053AB  23075.16073206  .00025063  00000-0  15869-2 0  9993,2 52681  53.2162 355.2115 0001762  65.9145 294.2031 15.08847385 46269,6917.858,95.437,540.942,538.504,0.0
52681.0,STARLINK-4068,PAYLOAD,2023-03-16 18:09:56,15.08834297,0.0001613,53.2168,352.5351,78.2612,281.8561,0.00099348,0.00015556,0.0,0 STARLINK-4068,1 52681U 22053AB  23075.75689962  .00015556  00000-0  99348-3 0  9991,2 52681  53.2168 352.5351 0001613  78.2612 281.8561 15.08834297 46356,6917.898,95.438,540.879,538.647,0.0
52681.0,STARLINK-4068,PAYLOAD,2023-03-17 11:39:10,15.08843502,0.0001337,53.2159,349.2618,73.461,286.6529,0.00091987,0.00014383,0.0,0 STARLINK-4068,1 52681U 22053AB  23076.48554207  .00014383  00000-0  91987-3 0  9993,2 52681  53.2159 349.2618 0001337  73.4610 286.6529 15.08843502 46461,6917.87,95.437,540.66,538.81,0.0
52681.0,STARLINK-4068,PAYLOAD,2023-03-18 11:29:57,15.0884853,0.0001656,53.2167,344.8016,76.2209,283.8967,0.00018143,2.601e-05,0.0,0 STARLINK-4068,1 52681U 22053AB  23077.47913563  .00002601  00000-0  18143-3 0  9990,2 52681  53.2167 344.8016 0001656  76.2209 283.8967 15.08848530 46610,6917.854,95.437,540.865,538.574,0.0
52681.0,STARLINK-4068,PAYLOAD,2023-03-18 22:37:38,15.08856021,0.0001226,53.2163,342.7199,74.31,285.8028,0.00041586,6.34e-05,0.0,0 STARLINK-4068,1 52681U 22053AB  23077.94281029  .00006340  00000-0  41586-3 0  9998,2 52681  53.2163 342.7199 0001226  74.3100 285.8028 15.08856021 47072,6917.831,95.437,540.545,538.848,0.0
52681.0,STARLINK-4068,PAYLOAD,2023-03-19 03:23:48,15.08860141,0.0001244,53.217,341.8279,70.6431,289.4696,0.00081496,0.00012713,0.0,0 STARLINK-4068,1 52681U 22053AB  23078.14152830  .00012713  00000-0  81496-3 0  9993,2 52681  53.2170 341.8279 0001244  70.6431 289.4696 15.08860141 46714,6917.819,95.436,540.544,538.823,0.0
52681.0,STARLINK-4068,PAYLOAD,2023-03-19 20:53:02,15.0884823,0.0001038,53.2171,338.5564,82.1299,277.9811,0.00050833,7.813e-05,0.0,0 STARLINK-4068,1 52681U 22053AB  23078.87017074  .00007813  00000-0  50833-3 0  9999,2 52681  53.2171 338.5564 0001038  82.1299 277.9811 15.08848230 46824,6917.855,95.437,540.438,539.002,0.0
52681.0,STARLINK-4068,PAYLOAD,2023-03-20 09:36:07,15.08838116,0.0001534,53.2165,336.1773,84.2512,275.8655,0.00041298,6.29e-05,0.0,0 STARLINK-4068,1 52681U 22053AB  23079.40009226  .00006290  00000-0  41298-3 0  9992,2 52681  53.2165 336.1773 0001534  84.2512 275.8655 15.08838116 46909,6917.886,95.438,540.812,538.69,0.0
52681.0,STARLINK-4068,PAYLOAD,2023-03-21 03:05:22,15.08858816,0.0001151,53.2166,332.9086,100.6615,259.4507,0.0016701,0.00026405,0.0,0 STARLINK-4068,1 52681U 22053AB  23080.12873198  .00026405  00000-0  16701-2 0  9990,2 52681  53.2166 332.9086 0001151 100.6615 259.4507 15.08858816 47019,6917.823,95.436,540.484,538.892,0.0
52681.0,STARLINK-4068,PAYLOAD,2023-03-21 20:34:37,15.08846775,0.0001163,53.2159,329.6376,104.613,255.4991,0.0012058,0.00018958,0.0,0 STARLINK-4068,1 52681U 22053AB  23080.85737600  .00018958  00000-0  12058-2 0  9992,2 52681  53.2159 329.6376 0001163 104.6130 255.4991 15.08846775 47121,6917.86,95.437,540.529,538.92,0.0
52681.0,STARLINK-4068,PAYLOAD,2023-03-21 22:10:00,15.08848756,0.000116,53.2158,329.3403,104.386,255.7261,0.0013327,0.00020991,0.0,0 STARLINK-4068,1 52681U 22053AB  23080.92361568  .00020991  00000-0  13327-2 0  9996,2 52681  53.2158 329.3403 0001160 104.3860 255.7261 15.08848756 47520,6917.854,95.437,540.521,538.916,0.0
52681.0,STARLINK-4068,PAYLOAD,2023-03-22 20:25:24,15.0886002,0.0001285,53.2155,325.1773,116.3523,243.7601,0.0018549,0.00029372,0.0,0 STARLINK-4068,1 52681U 22053AB  23081.85097564  .00029372  00000-0  18549-2 0  9994,2 52681  53.2155 325.1773 0001285 116.3523 243.7601 15.08860020 47273,6917.819,95.436,540.573,538.795,0.0
52681.0,STARLINK-4068,PAYLOAD,2023-03-22 22:00:47,15.08850878,0.0001351,53.2159,324.8788,103.5799,256.5343,0.0010667,0.00016734,0.0,0 STARLINK-4068,1 52681U 22053AB  23081.91721600  .00016734  00000-0  10667-2 0  9997,2 52681  53.2159 324.8788 0001351 103.5799 256.5343 15.08850878 47675,6917.847,95.437,540.647,538.778,0.0
52681.0,STARLINK-4068,PAYLOAD,2023-03-23 01:11:33,15.0884714,0.0001337,53.2157,324.2837,97.7811,262.3333,0.00086626,0.00013528,0.0,0 STARLINK-4068,1 52681U 22053AB  23082.04969620  .00013528  00000-0  86626-3 0  9995,2 52681  53.2157 324.2837 0001337  97.7811 262.3333 15.08847140 47307,6917.859,95.437,540.648,538.799,0.0
52681.0,STARLINK-4068,PAYLOAD,2023-03-23 20:16:11,15.0884408,0.0001988,53.2148,320.7157,140.6804,219.4332,0.00082051,0.00012796,0.0,0 STARLINK-4068,1 52681U 22053AB  23082.84457613  .00012796  00000-0  82051-3 0  9991,2 52681  53.2148 320.7157 0001988 140.6804 219.4332 15.08844080 47420,6917.868,95.437,541.108,538.358,0.0
52681.0,STARLINK-4068,PAYLOAD,2023-03-23 21:51:34,15.08842186,8.24e-05,53.2148,320.4184,110.0278,250.0803,0.00088133,0.00013767,0.0,0 STARLINK-4068,1 52681U 22053AB  23082.91081879  .00013767  00000-0  88133-3 0  9992,2 52681  53.2148 320.4184 0000824 110.0278 250.0803 15.08842186 47824,6917.874,95.437,540.309,539.169,0.0
52681.0,STARLINK-4068,PAYLOAD,2023-03-23 23:26:57,15.0885566,0.0001281,53.2147,320.1211,107.0052,253.108,0.0014676,0.00023156,0.0,0 STARLINK-4068,1 52681U 22053AB  23082.97705787  .00023156  00000-0  14676-2 0  9992,2 52681  53.2147 320.1211 0001281 107.0052 253.1080 15.08855660 47445,6917.833,95.437,540.584,538.811,0.0
52681.0,STARLINK-4068,PAYLOAD,2023-03-24 21:42:19,15.08884042,0.0001147,53.2148,315.9567,99.9821,260.13,0.0011278,0.00017728,0.0,0 STARLINK-4068,1 52681U 22053AB  23083.90439785  .00017728  00000-0  11278-2 0  9991,2 52681  53.2148 315.9567 0001147  99.9821 260.1300 15.08884042 47580,6917.746,95.435,540.404,538.817,0.0
52681.0,STARLINK-4068,PAYLOAD,2023-03-25 18:22:22,15.08823839,0.0001328,53.2145,312.0921,98.7133,261.4009,-0.00017833,-3.124e-05,0.0,0 STARLINK-4068,1 52681U 22053AB  23084.76553326 -.00003124  00000-0 -17833-3 0  9995,2 52681  53.2145 312.0921 0001328  98.7133 261.4009 15.08823839 47715,6917.93,95.439,540.713,538.876,0.0
52681.0,STARLINK-4068,PAYLOAD,2023-03-25 21:33:08,15.0879761,0.0001369,53.2141,311.4981,65.8051,294.3084,-0.00079802,-0.00012951,0.0,0 STARLINK-4068,1 52681U 22053AB  23084.89801870 -.00012951  00000-0 -79802-3 0  9991,2 52681  53.2141 311.4981 0001369  65.8051 294.3084 15.08797610 48120,6918.01,95.44,540.822,538.928,0.0
52681.0,STARLINK-4068,PAYLOAD,2023-03-26 21:23:58,15.08821869,0.0001376,53.215,307.0356,68.4188,291.6951,0.001197,0.00018804,0.0,0 STARLINK-4068,1 52681U 22053AB  23085.89164497  .00018804  00000-0  11970-2 0  9991,2 52681  53.2150 307.0356 0001376  68.4188 291.6951 15.08821869 47884,6917.936,95.439,540.753,538.849,0.0
52681.0,STARLINK-4068,PAYLOAD,2023-03-27 00:34:44,15.08833352,0.000137,53.2148,306.4412,67.9424,292.1714,0.0014818,0.00023369,0.0,0 STARLINK-4068,1 52681U 22053AB  23086.02412560  .00023369  00000-0  14818-2 0  9990,2 52681  53.2148 306.4412 0001370  67.9424 292.1714 15.08833352 48297,6917.901,95.438,540.713,538.818,0.0
52681.0,STARLINK-4068,PAYLOAD,2023-03-27 21:14:43,15.08887919,0.000131,53.2152,302.5754,64.4412,295.6715,0.0017726,0.00028073,0.0,0 STARLINK-4068,1 52681U 22053AB  23086.88522998  .00028073  00000-0  17726-2 0  9999,2 52681  53.2152 302.5754 0001310  64.4412 295.6715 15.08887919 48030,6917.734,95.435,540.505,538.693,0.0
52681.0,STARLINK-4068,PAYLOAD,2023-03-28 13:08:34,15.08870777,0.0002575,53.2156,299.6011,81.1982,278.9302,0.0012055,0.00018966,0.0,0 STARLINK-4068,1 52681U 22053AB  23087.54762579  .00018966  00000-0  12055-2 0  9994,2 52681  53.2156 299.6011 0002575  81.1982 278.9302 15.08870777 48139,6917.786,95.436,541.433,537.87,0.0
52681.0,STARLINK-4068,PAYLOAD,2023-03-28 14:43:57,15.08860066,8.86e-05,53.2152,299.3042,60.4547,299.6534,0.0010982,0.00017243,0.0,0 STARLINK-4068,1 52681U 22053AB  23087.61386438  .00017243  00000-0  10982-2 0  9992,2 52681  53.2152 299.3042 0000886  60.4547 299.6534 15.08860066 48537,6917.819,95.436,540.297,539.071,0.0
52681.0,STARLINK-4068,PAYLOAD,2023-03-28 21:05:30,15.08860998,0.0001074,53.2152,298.1149,83.2271,276.8843,0.0014977,0.00023642,0.0,0 STARLINK-4068,1 52681U 22053AB  23087.87882192  .00023642  00000-0  14977-2 0  9996,2 52681  53.2152 298.1149 0001074  83.2271 276.8843 15.08860998 48184,6917.816,95.436,540.424,538.938,0.0
52681.0,STARLINK-4068,PAYLOAD,2023-03-29 00:16:16,15.0886677,0.0001089,53.2151,297.5201,81.8296,278.282,0.0015987,0.00025266,0.0,0 STARLINK-4068,1 52681U 22053AB  23088.01129977  .00025266  00000-0  15987-2 0  9994,2 52681  53.2151 297.5201 0001089  81.8296 278.2820 15.08866770 48592,6917.799,95.436,540.417,538.91,0.0
52681.0,STARLINK-4068,PAYLOAD,2023-03-29 20:56:17,15.0884441,0.0001126,53.2149,293.6546,99.1143,260.9977,0.0012341,0.0001941,0.0,0 STARLINK-4068,1 52681U 22053AB  23088.87242483  .00019410  00000-0  12341-2 0  9991,2 52681  53.2149 293.6546 0001126  99.1143 260.9977 15.08844410 48333,6917.867,95.437,540.511,538.953,0.0
52681.0,STARLINK-4068,PAYLOAD,2023-03-30 06:28:36,15.08847425,0.0001043,53.2147,291.8705,95.0992,265.0119,0.00074084,0.00011525,0.0,0 STARLINK-4068,1 52681U 22053AB  23089.26986420  .00011525  00000-0  74084-3 0  9993,2 52681  53.2147 291.8705 0001043  95.0992 265.0119 15.08847425 48392,6917.858,95.437,540.444,539.001,0.0
52681.0,STARLINK-4068,PAYLOAD,2023-03-30 19:11:41,15.08844105,0.0001207,53.2151,289.4918,95.3359,264.7771,0.00037433,5.675e-05,0.0,0 STARLINK-4068,1 52681U 22053AB  23089.79978535  .00005675  00000-0  37433-3 0  9995,2 52681  53.2151 289.4918 0001207  95.3359 264.7771 15.08844105 48862,6917.868,95.437,540.568,538.898,0.0
